      2.10          N: GNSS NAV DATA                        RINEX VERSION / TYPE
fic2rin                                 04/22/2020 00:17:33 PGM / RUN BY / DATE
                                                            END OF HEADER
 6 20  4 21 11 59 44.0-2.570301294327e-04-7.503331289627e-12 0.000000000000e+00
    7.700000000000e+01 6.037500000000e+01 3.950521697943e-09 2.628806768285e+00
    3.244727849960e-06 1.902801450342e-03 8.724629878998e-06 5.153789813995e+03
    2.159840000000e+05-5.401670932770e-08-2.591044815005e+00 1.117587089539e-08
    9.794327548827e-01 2.214687500000e+02-1.045746123364e+00-7.734250734016e-09
    5.071639825584e-10 1.000000000000e+00 2.102000000000e+03 0.000000000000e+00
    2.400000000000e+00 0.000000000000e+00 4.656612873077e-09 7.700000000000e+01
    2.088000000000e+05 4.000000000000e+00
32 20  4 21 11 59 44.0 2.644374035299e-04 8.185452315956e-12 0.000000000000e+00
    1.500000000000e+01-3.853125000000e+01 4.563761527558e-09-9.051151120546e-01
   -1.903623342514e-06 3.874962916598e-03 1.143477857113e-05 5.153710054398e+03
    2.159840000000e+05 5.215406417847e-08-5.022888497524e-01 4.097819328308e-08
    9.570874829010e-01 1.561875000000e+02-2.466660483270e+00-7.976046520067e-09
   -2.957266039144e-10 1.000000000000e+00 2.102000000000e+03 0.000000000000e+00
    2.400000000000e+00 0.000000000000e+00 4.656612873077e-10 1.500000000000e+01
    2.088000000000e+05 4.000000000000e+00
 1 20  4 21 12  0  0.0-3.633429296315e-04-9.549694368616e-12 0.000000000000e+00
    6.700000000000e+01 5.600000000000e+01 3.893376460472e-09 2.532010853741e+00
    2.902001142502e-06 9.719195892103e-03 9.248033165932e-06 5.153630044937e+03
    2.160000000000e+05-2.235174179077e-08-2.582806362584e+00-1.806765794754e-07
    9.798561599478e-01 2.108437500000e+02 7.642851936261e-01-7.660319083038e-09
    5.853815263474e-10 1.000000000000e+00 2.102000000000e+03 0.000000000000e+00
    2.400000000000e+00 0.000000000000e+00 5.587935447693e-09 6.700000000000e+01
    2.088000000000e+05 4.000000000000e+00
 3 20  4 21 12  0  0.0-1.522009260952e-04-1.125499693444e-11 0.000000000000e+00
    1.800000000000e+01-2.012500000000e+01 4.841273087028e-09 1.477712370846e+00
   -1.184642314911e-06 2.735695103183e-03 3.430992364883e-06 5.153566461563e+03
    2.160000000000e+05-9.313225746155e-09-1.541905368308e+00 6.332993507385e-08
    9.649332471486e-01 3.123125000000e+02 6.921461123095e-01-8.400707066026e-09
   -2.785830326729e-11 1.000000000000e+00 2.102000000000e+03 0.000000000000e+00
    2.400000000000e+00 0.000000000000e+00 1.862645149231e-09 1.800000000000e+01
    2.088000000000e+05 4.000000000000e+00
 2 20  4 21 12  0  0.0-4.431786946952e-04-6.366462912410e-12 0.000000000000e+00
    1.030000000000e+02 6.331250000000e+01 4.219818629527e-09 2.778596683979e+00
    3.287568688393e-06 1.972734648734e-02 8.979812264442e-06 5.153680835724e+03
    2.160000000000e+05 1.937150955200e-07-2.658330137481e+00-4.842877388000e-08
    9.589077055549e-01 1.993437500000e+02-1.635006046873e+00-7.592459113540e-09
    4.710910514046e-10 1.000000000000e+00 2.102000000000e+03 0.000000000000e+00
    2.400000000000e+00 0.000000000000e+00-1.769512891769e-08 1.030000000000e+02
    2.088000000000e+05 4.000000000000e+00
 7 20  4 21 12  0  0.0-2.636532299221e-04-8.640199666843e-12 0.000000000000e+00
    2.300000000000e+01 8.815625000000e+01 4.814129099229e-09 1.775745202938e+00
    4.570931196213e-06 1.364847994410e-02 8.413568139076e-06 5.153681859970e+03
    2.160000000000e+05-4.023313522339e-07 5.632671637326e-01 3.352761268616e-08
    9.537095801864e-01 2.185625000000e+02-2.405569237866e+00-8.288916695223e-09
    3.453715289676e-10 1.000000000000e+00 2.102000000000e+03 0.000000000000e+00
    2.400000000000e+00 0.000000000000e+00-1.117587089539e-08 2.300000000000e+01
    2.088000000000e+05 4.000000000000e+00
 9 20  4 21 12  0  0.0-2.022180706263e-04-7.617018127348e-12 0.000000000000e+00
    1.500000000000e+01-3.471875000000e+01 4.652336645638e-09-1.269099025354e+00
   -1.769512891769e-06 1.576358685270e-03 1.107901334763e-05 5.153755676270e+03
    2.160000000000e+05-3.725290298462e-08-5.105103688974e-01 1.303851604462e-08
    9.529441068385e-01 1.673437500000e+02 1.811867053890e+00-8.027834391525e-09
   -2.750114553310e-10 1.000000000000e+00 2.102000000000e+03 0.000000000000e+00
    2.400000000000e+00 0.000000000000e+00 1.396983861923e-09 1.500000000000e+01
    2.088000000000e+05 4.000000000000e+00
 5 20  4 21 12  0  0.0-1.125084236264e-05-6.821210263297e-13 0.000000000000e+00
    6.100000000000e+01-2.428125000000e+01 5.134856744537e-09-8.311376942325e-01
   -1.024454832077e-06 5.805290536955e-03 3.632158041000e-06 5.153635766983e+03
    2.160000000000e+05 4.470348358154e-08-1.573312278177e+00 7.078051567078e-08
    9.518345785651e-01 3.013437500000e+02 7.872630752728e-01-8.544998790641e-09
   -2.464388365953e-11 1.000000000000e+00 2.102000000000e+03 0.000000000000e+00
    2.400000000000e+00 0.000000000000e+00-1.117587089539e-08 6.100000000000e+01
    2.088000000000e+05 4.000000000000e+00
29 20  4 21 12  0  0.0-8.629355579615e-05-8.981260180008e-12 0.000000000000e+00
    1.500000000000e+01-5.409375000000e+01 3.655152251763e-09-1.226142584983e+00
   -2.851709723473e-06 1.348424470052e-03 1.169927418232e-05 5.153601692200e+03
    2.160000000000e+05 1.862645149231e-08 2.715318023483e+00 3.166496753693e-08
    9.859142587834e-01 1.664062500000e+02 1.880918491531e+00-7.607459738377e-09
   -2.535819912792e-10 1.000000000000e+00 2.102000000000e+03 0.000000000000e+00
    2.400000000000e+00 0.000000000000e+00-1.024454832077e-08 1.500000000000e+01
    2.088000000000e+05 4.000000000000e+00
27 20  4 21 12  0  0.0-2.729240804911e-04-1.045918907039e-11 0.000000000000e+00
    1.500000000000e+01-7.559375000000e+01 3.745513158514e-09-1.626319460219e+00
   -3.904104232788e-06 8.218697155826e-03 1.080520451069e-05 5.153666294098e+03
    2.160000000000e+05 5.029141902924e-08 2.645484103146e+00-2.011656761169e-07
    9.783929522108e-01 1.806875000000e+02 5.421389240223e-01-7.588173220730e-09
   -2.900120801672e-10 1.000000000000e+00 2.102000000000e+03 0.000000000000e+00
    2.400000000000e+00 0.000000000000e+00 1.396983861923e-09 1.500000000000e+01
    2.088000000000e+05 4.000000000000e+00
16 20  4 21 12  0  0.0-1.491657458246e-04-4.433786671143e-12 0.000000000000e+00
    3.800000000000e+01-3.228125000000e+01 4.529117227341e-09-7.400073190866e-01
   -1.654028892517e-06 1.153528341092e-02 2.980232238770e-06 5.153741996765e+03
    2.160000000000e+05 1.918524503708e-07 1.688160936828e+00 1.862645149231e-07
    9.786217613759e-01 3.298750000000e+02 6.266593437456e-01-8.370348658619e-09
   -3.439428980308e-10 1.000000000000e+00 2.102000000000e+03 0.000000000000e+00
    2.400000000000e+00 0.000000000000e+00-1.071020960808e-08 3.800000000000e+01
    2.088000000000e+05 4.000000000000e+00
24 20  4 21 12  0  0.0-1.200567930937e-05-5.684341886081e-13 0.000000000000e+00
    2.300000000000e+01 9.837500000000e+01 5.051281834735e-09 2.732838123506e+00
    4.939734935760e-06 9.605203871615e-03 8.579343557358e-06 5.153660861969e+03
    2.160000000000e+05-4.284083843231e-08 4.917406632696e-01-9.685754776001e-08
    9.370220561012e-01 2.003437500000e+02 6.676730493882e-01-8.172840431609e-09
    3.789443559820e-10 1.000000000000e+00 2.102000000000e+03 0.000000000000e+00
    2.400000000000e+00 0.000000000000e+00 2.793967723846e-09 2.300000000000e+01
    2.088000000000e+05 4.000000000000e+00
19 20  4 21 12  0  0.0-1.691011711955e-04 5.115907697473e-12 0.000000000000e+00
    1.400000000000e+01-5.503125000000e+01 3.736941372894e-09 9.808697705345e-01
   -3.051012754440e-06 9.344852063805e-03 1.170858740807e-05 5.153686611176e+03
    2.160000000000e+05-5.029141902924e-08 2.749296727244e+00-1.564621925354e-07
    9.824447642307e-01 1.733437500000e+02 1.593993368199e+00-7.731393472143e-09
   -3.200133298397e-10 1.000000000000e+00 2.102000000000e+03 0.000000000000e+00
    2.400000000000e+00 0.000000000000e+00-1.536682248116e-08 1.400000000000e+01
    2.088000000000e+05 4.000000000000e+00
22 20  4 21 12  0  0.0-7.843156345189e-04 6.821210263297e-13 0.000000000000e+00
    6.600000000000e+01-6.062500000000e+00 5.584518331890e-09-2.501416183785e+00
   -1.881271600723e-07 7.224888191558e-03 2.611428499222e-06 5.153515537262e+03
    2.160000000000e+05 5.215406417847e-08-1.627070386310e+00 1.154839992523e-07
    9.298953468108e-01 3.073437500000e+02-1.183351461670e+00-8.658932107850e-09
    1.064330047904e-10 1.000000000000e+00 2.102000000000e+03 0.000000000000e+00
    2.400000000000e+00 0.000000000000e+00-1.816079020500e-08 6.600000000000e+01
    2.088000000000e+05 4.000000000000e+00
15 20  4 21 12  0  0.0-2.364711835980e-04 2.614797267597e-12 0.000000000000e+00
    4.200000000000e+01-4.731250000000e+01 5.150571684842e-09-2.465868670082e+00
   -2.773478627205e-06 1.222226046957e-02 1.073256134987e-05 5.153675571442e+03
    2.160000000000e+05 2.123415470123e-07-5.990357536150e-01-1.285225152969e-07
    9.283991210128e-01 1.510312500000e+02 8.735925994726e-01-8.165340119191e-09
   -2.478674675321e-10 1.000000000000e+00 2.102000000000e+03 0.000000000000e+00
    2.400000000000e+00 0.000000000000e+00-1.117587089539e-08 4.200000000000e+01
    2.088000000000e+05 4.000000000000e+00
10 20  4 21 12  0  0.0-3.171996213496e-04-1.193711796077e-11 0.000000000000e+00
    8.600000000000e+01-2.140625000000e+01 4.884846330600e-09 4.138661106819e-01
   -1.104548573494e-06 5.551306298003e-03 3.894791007042e-06 5.153657911301e+03
    2.160000000000e+05 1.490116119385e-08-1.544964480692e+00 1.434236764908e-07
    9.648898540725e-01 3.080000000000e+02-2.631521879872e+00-8.398206961887e-09
   -5.107355599004e-11 1.000000000000e+00 2.102000000000e+03 0.000000000000e+00
    2.400000000000e+00 0.000000000000e+00 1.862645149231e-09 8.600000000000e+01
    2.088000000000e+05 4.000000000000e+00
